CCSDS_OMM_VERS = 2.0
CREATION_DATE  = 
ORIGINATOR     = 

OBJECT_NAME    = STARLINK-35116
OBJECT_ID      = 2025-235W
CENTER_NAME    = EARTH
REF_FRAME      = TEME
TIME_SYSTEM    = UTC
MEAN_ELEMENT_THEORY = SGP/SGP4

EPOCH          = 2025-11-10T22:00:00.999936
MEAN_MOTION    = 15.49404903
ECCENTRICITY   = .00014531
INCLINATION    = 53.1596
RA_OF_ASC_NODE = 79.1986
ARG_OF_PERICENTER = 48.6888
MEAN_ANOMALY   = 4.6035

EPHEMERIS_TYPE = 0
CLASSIFICATION_TYPE = U
NORAD_CAT_ID   = 66078
ELEMENT_SET_NO = 999
REV_AT_EPOCH   = 476
BSTAR          = -.31702314E-2
MEAN_MOTION_DOT = -.173499E-2
MEAN_MOTION_DDOT = 0

CCSDS_OMM_VERS = 2.0
CREATION_DATE  = 
ORIGINATOR     = 

OBJECT_NAME    = STARLINK-35402
OBJECT_ID      = 2025-235X
CENTER_NAME    = EARTH
REF_FRAME      = TEME
TIME_SYSTEM    = UTC
MEAN_ELEMENT_THEORY = SGP/SGP4

EPOCH          = 2025-11-10T22:00:00.999936
MEAN_MOTION    = 15.49358508
ECCENTRICITY   = .00014885
INCLINATION    = 53.1594
RA_OF_ASC_NODE = 79.1948
ARG_OF_PERICENTER = 59.1095
MEAN_ANOMALY   = 356.1431

EPHEMERIS_TYPE = 0
CLASSIFICATION_TYPE = U
NORAD_CAT_ID   = 66079
ELEMENT_SET_NO = 999
REV_AT_EPOCH   = 476
BSTAR          = -.25077989E-2
MEAN_MOTION_DOT = -.137737E-2
MEAN_MOTION_DDOT = 0

CCSDS_OMM_VERS = 2.0
CREATION_DATE  = 
ORIGINATOR     = 

OBJECT_NAME    = STARLINK-35325
OBJECT_ID      = 2025-235Y
CENTER_NAME    = EARTH
REF_FRAME      = TEME
TIME_SYSTEM    = UTC
MEAN_ELEMENT_THEORY = SGP/SGP4

EPOCH          = 2025-11-10T22:00:00.999936
MEAN_MOTION    = 15.49398835
ECCENTRICITY   = .00014544
INCLINATION    = 53.1595
RA_OF_ASC_NODE = 79.2023
ARG_OF_PERICENTER = 49.1484
MEAN_ANOMALY   = 2.2301

EPHEMERIS_TYPE = 0
CLASSIFICATION_TYPE = U
NORAD_CAT_ID   = 66080
ELEMENT_SET_NO = 999
REV_AT_EPOCH   = 476
BSTAR          = -.29982185E-2
MEAN_MOTION_DOT = -.164266E-2
MEAN_MOTION_DDOT = 0

CCSDS_OMM_VERS = 2.0
CREATION_DATE  = 
ORIGINATOR     = 

OBJECT_NAME    = STARLINK-35403
OBJECT_ID      = 2025-235Z
CENTER_NAME    = EARTH
REF_FRAME      = TEME
TIME_SYSTEM    = UTC
MEAN_ELEMENT_THEORY = SGP/SGP4

EPOCH          = 2025-11-10T22:00:00.999936
MEAN_MOTION    = 15.49409657
ECCENTRICITY   = .00015369
INCLINATION    = 53.1596
RA_OF_ASC_NODE = 79.1885
ARG_OF_PERICENTER = 48.1247
MEAN_ANOMALY   = 10.9148

EPHEMERIS_TYPE = 0
CLASSIFICATION_TYPE = U
NORAD_CAT_ID   = 66081
ELEMENT_SET_NO = 999
REV_AT_EPOCH   = 476
BSTAR          = -.32892639E-2
MEAN_MOTION_DOT = -.179883E-2
MEAN_MOTION_DDOT = 0

CCSDS_OMM_VERS = 2.0
CREATION_DATE  = 
ORIGINATOR     = 

OBJECT_NAME    = STARLINK-35011
OBJECT_ID      = 2025-235AA
CENTER_NAME    = EARTH
REF_FRAME      = TEME
TIME_SYSTEM    = UTC
MEAN_ELEMENT_THEORY = SGP/SGP4

EPOCH          = 2025-11-10T22:00:00.999936
MEAN_MOTION    = 15.49401596
ECCENTRICITY   = .00014714
INCLINATION    = 53.1596
RA_OF_ASC_NODE = 79.1905
ARG_OF_PERICENTER = 50.3160
MEAN_ANOMALY   = 6.8104

EPHEMERIS_TYPE = 0
CLASSIFICATION_TYPE = U
NORAD_CAT_ID   = 66082
ELEMENT_SET_NO = 999
REV_AT_EPOCH   = 476
BSTAR          = -.30302326E-2
MEAN_MOTION_DOT = -.165995E-2
MEAN_MOTION_DDOT = 0

CCSDS_OMM_VERS = 2.0
CREATION_DATE  = 
ORIGINATOR     = 

OBJECT_NAME    = STARLINK-35291
OBJECT_ID      = 2025-235AB
CENTER_NAME    = EARTH
REF_FRAME      = TEME
TIME_SYSTEM    = UTC
MEAN_ELEMENT_THEORY = SGP/SGP4

EPOCH          = 2025-11-10T22:00:00.999936
MEAN_MOTION    = 15.49334423
ECCENTRICITY   = .00012926
INCLINATION    = 53.1597
RA_OF_ASC_NODE = 79.1829
ARG_OF_PERICENTER = 87.2534
MEAN_ANOMALY   = 333.7466

EPHEMERIS_TYPE = 0
CLASSIFICATION_TYPE = U
NORAD_CAT_ID   = 66083
ELEMENT_SET_NO = 999
REV_AT_EPOCH   = 471
BSTAR          = -.15342993E-2
MEAN_MOTION_DOT = -.84935E-3
MEAN_MOTION_DDOT = 0

CCSDS_OMM_VERS = 2.0
CREATION_DATE  = 
ORIGINATOR     = 

OBJECT_NAME    = STARLINK-35379
OBJECT_ID      = 2025-235AC
CENTER_NAME    = EARTH
REF_FRAME      = TEME
TIME_SYSTEM    = UTC
MEAN_ELEMENT_THEORY = SGP/SGP4

EPOCH          = 2025-11-10T22:00:00.999936
MEAN_MOTION    = 15.49409344
ECCENTRICITY   = .00014772
INCLINATION    = 53.1596
RA_OF_ASC_NODE = 79.1787
ARG_OF_PERICENTER = 47.2685
MEAN_ANOMALY   = 15.6049

EPHEMERIS_TYPE = 0
CLASSIFICATION_TYPE = U
NORAD_CAT_ID   = 66084
ELEMENT_SET_NO = 999
REV_AT_EPOCH   = 476
BSTAR          = -.32709852E-2
MEAN_MOTION_DOT = -.178905E-2
MEAN_MOTION_DDOT = 0

CCSDS_OMM_VERS = 2.0
CREATION_DATE  = 
ORIGINATOR     = 

OBJECT_NAME    = STARLINK-35370
OBJECT_ID      = 2025-235AD
CENTER_NAME    = EARTH
REF_FRAME      = TEME
TIME_SYSTEM    = UTC
MEAN_ELEMENT_THEORY = SGP/SGP4

EPOCH          = 2025-11-10T22:00:00.999936
MEAN_MOTION    = 15.49375041
ECCENTRICITY   = .00015288
INCLINATION    = 53.1597
RA_OF_ASC_NODE = 79.1742
ARG_OF_PERICENTER = 56.3169
MEAN_ANOMALY   = 8.5089

EPHEMERIS_TYPE = 0
CLASSIFICATION_TYPE = U
NORAD_CAT_ID   = 66085
ELEMENT_SET_NO = 999
REV_AT_EPOCH   = 471
BSTAR          = -.29499904E-2
MEAN_MOTION_DOT = -.161552E-2
MEAN_MOTION_DDOT = 0

CCSDS_OMM_VERS = 2.0
CREATION_DATE  = 
ORIGINATOR     = 

OBJECT_NAME    = STARLINK-35596
OBJECT_ID      = 2025-236A
CENTER_NAME    = EARTH
REF_FRAME      = TEME
TIME_SYSTEM    = UTC
MEAN_ELEMENT_THEORY = SGP/SGP4

EPOCH          = 2025-11-10T22:00:00.999936
MEAN_MOTION    = 15.65764359
ECCENTRICITY   = .0001084
INCLINATION    = 53.1590
RA_OF_ASC_NODE = 298.1840
ARG_OF_PERICENTER = 98.9389
MEAN_ANOMALY   = 243.8179

EPHEMERIS_TYPE = 0
CLASSIFICATION_TYPE = U
NORAD_CAT_ID   = 66086
ELEMENT_SET_NO = 999
REV_AT_EPOCH   = 476
BSTAR          = -.21820793E-1
MEAN_MOTION_DOT = -.1983469E-1
MEAN_MOTION_DDOT = 0

CCSDS_OMM_VERS = 2.0
CREATION_DATE  = 
ORIGINATOR     = 

OBJECT_NAME    = STARLINK-35563
OBJECT_ID      = 2025-236B
CENTER_NAME    = EARTH
REF_FRAME      = TEME
TIME_SYSTEM    = UTC
MEAN_ELEMENT_THEORY = SGP/SGP4

EPOCH          = 2025-11-10T22:00:00.999936
MEAN_MOTION    = 15.65767729
ECCENTRICITY   = .00011058
INCLINATION    = 53.1589
RA_OF_ASC_NODE = 298.1801
ARG_OF_PERICENTER = 102.8952
MEAN_ANOMALY   = 241.7790

EPHEMERIS_TYPE = 0
CLASSIFICATION_TYPE = U
NORAD_CAT_ID   = 66087
ELEMENT_SET_NO = 999
REV_AT_EPOCH   = 470
BSTAR          = -.21898133E-1
MEAN_MOTION_DOT = -.1989906E-1
MEAN_MOTION_DDOT = 0

CCSDS_OMM_VERS = 2.0
CREATION_DATE  = 
ORIGINATOR     = 

OBJECT_NAME    = STARLINK-35461
OBJECT_ID      = 2025-236C
CENTER_NAME    = EARTH
REF_FRAME      = TEME
TIME_SYSTEM    = UTC
MEAN_ELEMENT_THEORY = SGP/SGP4

EPOCH          = 2025-11-10T22:00:00.999936
MEAN_MOTION    = 15.65769032
ECCENTRICITY   = .00009815
INCLINATION    = 53.1589
RA_OF_ASC_NODE = 298.1733
ARG_OF_PERICENTER = 97.6552
MEAN_ANOMALY   = 250.8545

EPHEMERIS_TYPE = 0
CLASSIFICATION_TYPE = U
NORAD_CAT_ID   = 66088
ELEMENT_SET_NO = 999
REV_AT_EPOCH   = 470
BSTAR          = -.21939089E-1
MEAN_MOTION_DOT = -.1993178E-1
MEAN_MOTION_DDOT = 0

CCSDS_OMM_VERS = 2.0
CREATION_DATE  = 
ORIGINATOR     = 

OBJECT_NAME    = STARLINK-35571
OBJECT_ID      = 2025-236D
CENTER_NAME    = EARTH
REF_FRAME      = TEME
TIME_SYSTEM    = UTC
MEAN_ELEMENT_THEORY = SGP/SGP4

EPOCH          = 2025-11-10T22:00:00.999936
MEAN_MOTION    = 15.65767735
ECCENTRICITY   = .00010631
INCLINATION    = 53.1589
RA_OF_ASC_NODE = 298.1765
ARG_OF_PERICENTER = 104.0162
MEAN_ANOMALY   = 242.5767

EPHEMERIS_TYPE = 0
CLASSIFICATION_TYPE = U
NORAD_CAT_ID   = 66089
ELEMENT_SET_NO = 999
REV_AT_EPOCH   = 476
BSTAR          = -.21916513E-1
MEAN_MOTION_DOT = -.1991343E-1
MEAN_MOTION_DDOT = 0

