STARLINK-35116          
1 66078U 25235W   25314.91667824 -.00173499  00000+0 -31702-2 0  9991
2 66078  53.1596  79.1986 0001453  48.6888   4.6035 15.49404903  4767
STARLINK-35402          
1 66079U 25235X   25314.91667824 -.00137737  00000+0 -25078-2 0  9996
2 66079  53.1594  79.1948 0001488  59.1095 356.1431 15.49358508  4763
STARLINK-35325          
1 66080U 25235Y   25314.91667824 -.00164266  00000+0 -29982-2 0  9993
2 66080  53.1595  79.2023 0001454  49.1484   2.2301 15.49398835  4767
STARLINK-35403          
1 66081U 25235Z   25314.91667824 -.00179883  00000+0 -32893-2 0  9990
2 66081  53.1596  79.1885 0001536  48.1247  10.9148 15.49409657  4761
STARLINK-35011          
1 66082U 25235AA  25314.91667824 -.00165995  00000+0 -30302-2 0  9993
2 66082  53.1596  79.1905 0001471  50.3160   6.8104 15.49401596  4762
STARLINK-35291          
1 66083U 25235AB  25314.91667824 -.00084935  00000+0 -15343-2 0  9996
2 66083  53.1597  79.1829 0001292  87.2534 333.7466 15.49334423  4716
STARLINK-35379          
1 66084U 25235AC  25314.91667824 -.00178905  00000+0 -32710-2 0  9995
2 66084  53.1596  79.1787 0001477  47.2685  15.6049 15.49409344  4760
STARLINK-35370          
1 66085U 25235AD  25314.91667824 -.00161552  00000+0 -29500-2 0  9999
2 66085  53.1597  79.1742 0001528  56.3169   8.5089 15.49375041  4714
STARLINK-35596          
1 66086U 25236A   25314.91667824 -.01983469  00000+0 -21821-1 0  9998
2 66086  53.1590 298.1840 0001084  98.9389 243.8179 15.65764359  4764
STARLINK-35563          
1 66087U 25236B   25314.91667824 -.01989906  00000+0 -21898-1 0  9995
2 66087  53.1589 298.1801 0001105 102.8952 241.7790 15.65767729  4709
STARLINK-35461          
1 66088U 25236C   25314.91667824 -.01993178  00000+0 -21939-1 0  9998
2 66088  53.1589 298.1733 0000981  97.6552 250.8545 15.65769032  4700
STARLINK-35571          
1 66089U 25236D   25314.91667824 -.01991343  00000+0 -21917-1 0  9997
2 66089  53.1589 298.1765 0001063 104.0162 242.5767 15.65767735  4766
